0 FENGYUN 1C DEB
1 29782U 99025BY  13283.41970912  .00001922  00000-0  13565-2 0  1766
2 29782 099.0801 248.7191 0074219 258.1394 255.1389 13.97863009343340
0 FENGYUN 1C DEB
1 29782U 99025BY  13285.48880965  .00002089  00000-0  14716-2 0  1778
2 29782 099.0794 250.7650 0074149 252.4333 227.5314 13.97869101343638
0 FENGYUN 1C DEB
1 29782U 99025BY  13287.83835582  .00002729  00000-0  19130-2 0  1781
2 29782 099.0797 253.0889 0073881 245.7649 171.4780 13.97879492343962
0 FENGYUN 1C DEB
1 29782U 99025BY  13289.84249867  .00002762  00000-0  19352-2 0  1793
2 29782 099.0804 255.0711 0073667 240.0714 177.2873 13.97890535344240
0 FENGYUN 1C DEB
1 29782U 99025BY  13291.84725833  .00002570  00000-0  18030-2 0  1809
2 29782 099.0812 257.0538 0073505 234.3750 186.2748 13.97900116344524
0 FENGYUN 1C DEB
1 29782U 99025BY  13293.85107646  .00002709  00000-0  18985-2 0  1812
2 29782 099.0818 259.0360 0073417 228.6827 190.5957 13.97909862344806
0 FENGYUN 1C DEB
1 29782U 99025BY  13295.85559087  .00002687  00000-0  18826-2 0  1824
2 29782 099.0820 261.0192 0073417 223.0362 198.4430 13.97920025345086
